[ {"name": "STARLINK-35867", "line1": "1 66791U 25278A   26139.10636688  .00023497  00000+0  85971-3 0  9999", "line2": "2 66791  43.0043  77.1139 0001645 273.8664  86.2000 15.27616428 25976"}, {"name": "STARLINK-35990", "line1": "1 66792U 25278B   26139.51523226  .00006263  00000+0  23689-3 0  9998", "line2": "2 66792  43.0014  74.1505 0000454 246.6218 113.4586 15.27584117 26049"}, {"name": "STARLINK-36051", "line1": "1 66793U 25278C   26139.21528375  .00011016  00000+0  40920-3 0  9995", "line2": "2 66793  43.0048  76.1973 0001537 254.7558 105.3124 15.27583118 25999"}, {"name": "STARLINK-36062", "line1": "1 66794U 25278D   26138.89477718  .00016111  00000+0  59364-3 0  9996", "line2": "2 66794  43.0026  78.0962 0001520 242.2638 117.8059 15.27583502 25945"}, {"name": "STARLINK-36047", "line1": "1 66795U 25278E   26139.21400082  .00010608  00000+0  39438-3 0  9999", "line2": "2 66795  43.0044  76.1937 0001315 267.0372  93.0329 15.27587204 25992"}, {"name": "STARLINK-35964", "line1": "1 66796U 25278F   26139.47855949  .00012108  00000+0  44860-3 0  9996", "line2": "2 66796  43.0045  59.6906 0000818 276.7422  83.3337 15.27594371 26205"}, {"name": "STARLINK-36099", "line1": "1 66797U 25278G   26139.53323405  .00025177  00000+0  92069-3 0  9995", "line2": "2 66797  43.0028  74.2872 0000157  16.9409 343.1448 15.27601969 26041"}, {"name": "STARLINK-36041", "line1": "1 66798U 25278H   26138.96273424  .00014723  00000+0  54345-3 0  9997", "line2": "2 66798  43.0032  77.7438 0001337 256.7223 103.3480 15.27581456 25951"}, {"name": "STARLINK-36044", "line1": "1 66799U 25278J   26139.51265863  .00008994  00000+0  33585-3 0  9994", "line2": "2 66799  42.9996  74.1218 0000716 279.6486  80.4284 15.27590282 26046"}, {"name": "STARLINK-35996", "line1": "1 66800U 25278K   26139.50753626  .00014507  00000+0  53538-3 0  9992", "line2": "2 66800  43.0021  74.0880 0001124 256.4538 103.6188 15.27596285 26049"}, {"name": "STARLINK-36080", "line1": "1 66801U 25278L   26139.10507134  .00010942  00000+0  40653-3 0  9993", "line2": "2 66801  43.0009  77.0931 0001408 265.8843  94.1847 15.27581142 25977"}, {"name": "STARLINK-35604", "line1": "1 66802U 25278M   26139.21913723  .00008899  00000+0  33247-3 0  9990", "line2": "2 66802  43.0040  76.2233 0001686 259.1910 100.8752 15.27582778 25996"}, {"name": "STARLINK-35565", "line1": "1 66803U 25278N   26139.09479216  .00011871  00000+0  44005-3 0  9999", "line2": "2 66803  43.0022  77.0189 0001126 266.8766  93.1956 15.27590569 25974"}, {"name": "STARLINK-36038", "line1": "1 66804U 25278P   26139.51908376  .00007550  00000+0  28351-3 0  9996", "line2": "2 66804  43.0034  74.1823 0000935 279.0420  81.0326 15.27589556 26041"}, {"name": "STARLINK-36049", "line1": "1 66805U 25278Q   26138.24733785  .00004722  00000+0  18104-3 0  9999", "line2": "2 66805  43.0029  81.8378 0001432 274.6690  85.3998 15.27572376 25840"}, {"name": "STARLINK-36069", "line1": "1 66806U 25278R   26139.10119832  .00033210  00000+0  12087-2 0  9994", "line2": "2 66806  43.0035  77.0647 0002178 259.6830 100.3776 15.27639193 25978"}, {"name": "STARLINK-36000", "line1": "1 66807U 25278S   26139.19600390  .00001178  00000+0  52342-4 0  9996", "line2": "2 66807  43.0019  76.0567 0001045 274.7724  85.3008 15.27572185 25992"}, {"name": "STARLINK-36071", "line1": "1 66808U 25278T   26139.50109679  .00014879  00000+0  54867-3 0  9991", "line2": "2 66808  43.0018  74.0392 0001381 263.9131  96.1563 15.27607550 26049"}, {"name": "STARLINK-35979", "line1": "1 66809U 25278U   26139.10252360  .00031172  00000+0  11370-2 0  9990", "line2": "2 66809  43.0003  77.0702 0001353 270.5630  89.5067 15.27592881 25975"}, {"name": "STARLINK-36046", "line1": "1 66810U 25278V   26139.21785653  .00009188  00000+0  34293-3 0  9992", "line2": "2 66810  43.0039  76.2147 0000633 231.7078 128.3717 15.27585636 25991"}, {"name": "STARLINK-36045", "line1": "1 66811U 25278W   26139.53708831  .00003037  00000+0  11993-3 0  9990", "line2": "2 66811  43.0051  74.3097 0001624 250.9785 109.0891 15.27558082 26049"}, {"name": "STARLINK-36054", "line1": "1 66812U 25278X   26139.53450514  .00018786  00000+0  69020-3 0  9994", "line2": "2 66812  43.0035  74.2910 0001716 265.5453  94.5203 15.27591344 26044"}, {"name": "STARLINK-36042", "line1": "1 66813U 25278Y   26139.50880391  .00007418  00000+0  27878-3 0  9997", "line2": "2 66813  42.9996  74.0949 0001038 269.1345  90.9388 15.27585646 26048"}, {"name": "STARLINK-35984", "line1": "1 66814U 25278Z   26139.51137509  .00008720  00000+0  32594-3 0  9993", "line2": "2 66814  43.0115  74.1103 0000543 300.0329  60.0469 15.27590599 26045"}, {"name": "STARLINK-35985", "line1": "1 66815U 25278AA  26139.53064535  .00016503  00000+0  60759-3 0  9996", "line2": "2 66815  43.0022  74.2579 0001643 269.7355  90.3309 15.27594891 27255"}, {"name": "STARLINK-36098", "line1": "1 66816U 25278AB  26139.50238091  .00007092  00000+0  26694-3 0  9997", "line2": "2 66816  42.9982  74.0448 0000619 279.7346  80.3435 15.27585956 26042"}, {"name": "STARLINK-35995", "line1": "1 66817U 25278AC  26139.19986814  .00012570  00000+0  46558-3 0  9994", "line2": "2 66817  43.0028  76.0816 0001222 266.8633  93.2079 15.27575363 25995"}, {"name": "STARLINK-35994", "line1": "1 66818U 25278AD  26139.52936667  .00012931  00000+0  47846-3 0  9995", "line2": "2 66818  43.0024  74.2572 0000253 347.0034  13.0811 15.27590164 26048"}, {"name": "STARLINK-35989", "line1": "1 66819U 25278AE  26139.53834170  .00012071  00000+0  44742-3 0  9990", "line2": "2 66819  43.0062  74.3117 0003279 261.8558  98.1922 15.27581123 26044"}, {"name": "STARLINK-35966", "line1": "1 66821U 25280A   26139.33826000  .00126755  00000+0  10479-1 0  9990", "line2": "2 66821  70.0017 156.5178 0000446 127.9664 232.1535 14.98187066 26652"}, {"name": "STARLINK-35958", "line1": "1 66822U 25280B   26139.43826471  .00002384  00000+0  20744-3 0  9993", "line2": "2 66822  70.0000 156.0633 0003997 264.3662  95.7041 14.98344989 26670"}, {"name": "STARLINK-35957", "line1": "1 66823U 25280C   26139.42156632  .00001410  00000+0  12590-3 0  9997", "line2": "2 66823  70.0006 156.0046 0004119 263.5655  96.5035 14.98333971 26676"}, {"name": "STARLINK-35896", "line1": "1 66824U 25280D   26139.45493756  .00004027  00000+0  34487-3 0  9998", "line2": "2 66824  70.0000 156.1237 0003440 271.8622  88.2143 14.98351663 26672"}, {"name": "STARLINK-35476", "line1": "1 66825U 25280E   26139.39655272  .00002506  00000+0  21772-3 0  9998", "line2": "2 66825  70.0000 156.3196 0003821 267.7825  92.2897 14.98332061 26651"}, {"name": "STARLINK-35898", "line1": "1 66826U 25280F   26139.47999432 -.00004180  00000+0 -34295-3 0  9993", "line2": "2 66826  70.0002 155.8066 0004396 268.0751  91.9905 14.98302716 26687"}, {"name": "STARLINK-35959", "line1": "1 66827U 25280G   26139.37985260  .00001985  00000+0  17407-3 0  9991", "line2": "2 66827  70.0002 156.2606 0004101 266.4805  93.5885 14.98332930 26663"}, {"name": "STARLINK-35982", "line1": "1 66828U 25280H   26139.39237509  .00002095  00000+0  18331-3 0  9990", "line2": "2 66828  70.0000 156.3038 0003917 266.2679  93.8032 14.98334172 26660"}, {"name": "STARLINK-36084", "line1": "1 66829U 25280J   26139.49666216 -.00000982  00000+0 -74468-4 0  9992", "line2": "2 66829  69.9999 155.8646 0004380 265.8707  94.1952 14.98331700 26687"}, {"name": "STARLINK-35881", "line1": "1 66830U 25280K   26139.50002315  .00039113  00000+0  32684-2 0  9998", "line2": "2 66830  70.0004 156.0852 0004050 274.5158 260.9491 14.98317474  5761"}, {"name": "STARLINK-35788", "line1": "1 66831U 25280L   26139.48415253  .00001308  00000+0  11739-3 0  9999", "line2": "2 66831  70.0002 155.8218 0004174 265.0810  94.9873 14.98333342 26685"}, {"name": "STARLINK-35768", "line1": "1 66832U 25280M   26139.45081110  .00006466  00000+0  54916-3 0  9992", "line2": "2 66832  70.0000 156.1056 0003776 260.4597  99.6135 14.98331122 26672"}, {"name": "STARLINK-35858", "line1": "1 66833U 25280N   26139.50084812  .00002048  00000+0  17936-3 0  9994", "line2": "2 66833  70.0001 155.8799 0003813 266.5864  93.4858 14.98336033 26681"}, {"name": "STARLINK-35840", "line1": "1 66834U 25280P   26139.40904480  .00001440  00000+0  12842-3 0  9992", "line2": "2 66834  70.0004 155.9618 0004062 269.3039  90.7655 14.98333129 26675"}, {"name": "STARLINK-35890", "line1": "1 66835U 25280Q   26139.37567875  .00002153  00000+0  18814-3 0  9999", "line2": "2 66835  70.0004 156.2445 0003680 267.1851  92.8886 14.98333666 26665"}, {"name": "STARLINK-35838", "line1": "1 66836U 25280R   26139.42573980  .00002380  00000+0  20716-3 0  9996", "line2": "2 66836  69.9998 156.0191 0004206 265.7688  94.2990 14.98335461 26676"}, {"name": "STARLINK-35729", "line1": "1 66837U 25280S   26139.50002315  .00038603  00000+0  32269-2 0  9997", "line2": "2 66837  70.0004 156.1085 0004077 271.2373 240.8972 14.98307579  5811"}, {"name": "STARLINK-35886", "line1": "1 66838U 25280T   26139.42172865 -.00003983  00000+0 -32620-3 0  9994", "line2": "2 66838  70.0015 156.0060 0003343 250.5608 109.5190 14.98330112 26671"}, {"name": "STARLINK-35717", "line1": "1 66839U 25280U   26139.43842860  .00001682  00000+0  14868-3 0  9991", "line2": "2 66839  69.9999 156.0613 0004116 266.4020  93.6668 14.98333209 26670"}, {"name": "STARLINK-35837", "line1": "1 66840U 25280V   26139.45512514  .00000964  00000+0  88543-4 0  9999", "line2": "2 66840  70.0002 156.1225 0003257 268.1262  91.9524 14.98338802 26678"}, {"name": "STARLINK-35715", "line1": "1 66841U 25280W   26139.39672486  .00002500  00000+0  21718-3 0  9996", "line2": "2 66841  70.0002 156.3180 0003781 266.1533  93.9194 14.98341642 26662"}, {"name": "STARLINK-35769", "line1": "1 66842U 25280X   26139.41338319  .00001901  00000+0  16708-3 0  9991", "line2": "2 66842  70.0001 155.9737 0004094 266.4739  93.5952 14.98334021 26676"}, {"name": "STARLINK-35997", "line1": "1 66843U 25280Y   26139.43006461 -.00003448  00000+0 -28125-3 0  9990", "line2": "2 66843  69.9998 156.0307 0003901 268.7851  91.2861 14.98330691 26673"}]